[{"OBJECT_NAME":"STARLINK-35092","OBJECT_ID":"2025-189V","EPOCH":"2026-03-09T14:01:14.890368","MEAN_MOTION":15.30215946,"ECCENTRICITY":9.49e-5,"INCLINATION":53.1604,"RA_OF_ASC_NODE":207.0206,"ARG_OF_PERICENTER":87.1219,"MEAN_ANOMALY":272.989,"EPHEMERIS_TYPE":0,"CLASSIFICATION_TYPE":"U","NORAD_CAT_ID":65342,"ELEMENT_SET_NO":999,"REV_AT_EPOCH":3100,"BSTAR":0.0012608,"MEAN_MOTION_DOT":0.00037187,"MEAN_MOTION_DDOT":0},{"OBJECT_NAME":"STARLINK-34838","OBJECT_ID":"2025-189W","EPOCH":"2026-03-09T16:49:45.751872","MEAN_MOTION":15.30201971,"ECCENTRICITY":0.0001031,"INCLINATION":53.1606,"RA_OF_ASC_NODE":207.0316,"ARG_OF_PERICENTER":73.3677,"MEAN_ANOMALY":286.7437,"EPHEMERIS_TYPE":0,"CLASSIFICATION_TYPE":"U","NORAD_CAT_ID":65343,"ELEMENT_SET_NO":999,"REV_AT_EPOCH":3111,"BSTAR":0.00068697,"MEAN_MOTION_DOT":0.00020043,"MEAN_MOTION_DDOT":0},{"OBJECT_NAME":"STARLINK-35088","OBJECT_ID":"2025-189X","EPOCH":"2026-03-09T16:39:07.666272","MEAN_MOTION":15.30195891,"ECCENTRICITY":0.0001253,"INCLINATION":53.1599,"RA_OF_ASC_NODE":206.9909,"ARG_OF_PERICENTER":52.8689,"MEAN_ANOMALY":307.2426,"EPHEMERIS_TYPE":0,"CLASSIFICATION_TYPE":"U","NORAD_CAT_ID":65344,"ELEMENT_SET_NO":999,"REV_AT_EPOCH":3111,"BSTAR":0.001337,"MEAN_MOTION_DOT":0.00039443,"MEAN_MOTION_DDOT":0},{"OBJECT_NAME":"STARLINK-34831","OBJECT_ID":"2025-189Y","EPOCH":"2026-03-09T14:27:04.909824","MEAN_MOTION":15.30195782,"ECCENTRICITY":0.0001056,"INCLINATION":53.1574,"RA_OF_ASC_NODE":207.1267,"ARG_OF_PERICENTER":76.9728,"MEAN_ANOMALY":283.139,"EPHEMERIS_TYPE":0,"CLASSIFICATION_TYPE":"U","NORAD_CAT_ID":65345,"ELEMENT_SET_NO":999,"REV_AT_EPOCH":3110,"BSTAR":0.0014582,"MEAN_MOTION_DOT":0.00043074,"MEAN_MOTION_DDOT":0},{"OBJECT_NAME":"STARLINK-34873","OBJECT_ID":"2025-189Z","EPOCH":"2026-03-09T15:21:37.481760","MEAN_MOTION":15.30192814,"ECCENTRICITY":0.0001115,"INCLINATION":53.1607,"RA_OF_ASC_NODE":206.6533,"ARG_OF_PERICENTER":101.6411,"MEAN_ANOMALY":258.4715,"EPHEMERIS_TYPE":0,"CLASSIFICATION_TYPE":"U","NORAD_CAT_ID":65346,"ELEMENT_SET_NO":999,"REV_AT_EPOCH":3111,"BSTAR":0.00045328,"MEAN_MOTION_DOT":0.00013087,"MEAN_MOTION_DDOT":0},{"OBJECT_NAME":"STARLINK-34881","OBJECT_ID":"2025-189AA","EPOCH":"2026-03-09T16:11:46.262400","MEAN_MOTION":15.30198799,"ECCENTRICITY":0.0001094,"INCLINATION":53.157,"RA_OF_ASC_NODE":206.8741,"ARG_OF_PERICENTER":63.0229,"MEAN_ANOMALY":297.0883,"EPHEMERIS_TYPE":0,"CLASSIFICATION_TYPE":"U","NORAD_CAT_ID":65347,"ELEMENT_SET_NO":999,"REV_AT_EPOCH":3111,"BSTAR":0.00093409,"MEAN_MOTION_DOT":0.00027407,"MEAN_MOTION_DDOT":0},{"OBJECT_NAME":"STARLINK-34859","OBJECT_ID":"2025-189AB","EPOCH":"2026-03-09T16:25:26.982048","MEAN_MOTION":15.30202852,"ECCENTRICITY":9.21e-5,"INCLINATION":53.1585,"RA_OF_ASC_NODE":206.9335,"ARG_OF_PERICENTER":89.5242,"MEAN_ANOMALY":270.5864,"EPHEMERIS_TYPE":0,"CLASSIFICATION_TYPE":"U","NORAD_CAT_ID":65348,"ELEMENT_SET_NO":999,"REV_AT_EPOCH":3110,"BSTAR":0.00081203,"MEAN_MOTION_DOT":0.0002377,"MEAN_MOTION_DDOT":0},{"OBJECT_NAME":"STARLINK-34895","OBJECT_ID":"2025-189AC","EPOCH":"2026-03-09T16:04:11.121024","MEAN_MOTION":15.30236819,"ECCENTRICITY":0.0001267,"INCLINATION":53.1576,"RA_OF_ASC_NODE":206.838,"ARG_OF_PERICENTER":53.2836,"MEAN_ANOMALY":306.8281,"EPHEMERIS_TYPE":0,"CLASSIFICATION_TYPE":"U","NORAD_CAT_ID":65349,"ELEMENT_SET_NO":999,"REV_AT_EPOCH":3106,"BSTAR":0.00099742,"MEAN_MOTION_DOT":0.00029332,"MEAN_MOTION_DDOT":0},{"OBJECT_NAME":"STARLINK-34892","OBJECT_ID":"2025-189AD","EPOCH":"2026-03-09T15:39:51.706656","MEAN_MOTION":15.30181212,"ECCENTRICITY":9.4e-5,"INCLINATION":53.1593,"RA_OF_ASC_NODE":206.7315,"ARG_OF_PERICENTER":90.7848,"MEAN_ANOMALY":269.326,"EPHEMERIS_TYPE":0,"CLASSIFICATION_TYPE":"U","NORAD_CAT_ID":65350,"ELEMENT_SET_NO":999,"REV_AT_EPOCH":3105,"BSTAR":0.0011708,"MEAN_MOTION_DOT":0.00034458,"MEAN_MOTION_DDOT":0},{"OBJECT_NAME":"STARLINK-34244","OBJECT_ID":"2025-190A","EPOCH":"2026-03-09T13:33:07.280640","MEAN_MOTION":15.30183293,"ECCENTRICITY":0.0001286,"INCLINATION":53.1581,"RA_OF_ASC_NODE":168.9585,"ARG_OF_PERICENTER":83.6492,"MEAN_ANOMALY":276.4655,"EPHEMERIS_TYPE":0,"CLASSIFICATION_TYPE":"U","NORAD_CAT_ID":65351,"ELEMENT_SET_NO":999,"REV_AT_EPOCH":2973,"BSTAR":0.0013075,"MEAN_MOTION_DOT":0.00038546,"MEAN_MOTION_DDOT":0},{"OBJECT_NAME":"STARLINK-34716","OBJECT_ID":"2025-190B","EPOCH":"2026-03-09T13:11:50.296416","MEAN_MOTION":15.30187279,"ECCENTRICITY":0.00010175,"INCLINATION":53.1589,"RA_OF_ASC_NODE":168.8406,"ARG_OF_PERICENTER":68.7579,"MEAN_ANOMALY":291.3531,"EPHEMERIS_TYPE":0,"CLASSIFICATION_TYPE":"U","NORAD_CAT_ID":65352,"ELEMENT_SET_NO":999,"REV_AT_EPOCH":2973,"BSTAR":0.00077174927,"MEAN_MOTION_DOT":0.00022558,"MEAN_MOTION_DDOT":0},{"OBJECT_NAME":"STARLINK-34828","OBJECT_ID":"2025-190C","EPOCH":"2026-03-09T12:33:50.595264","MEAN_MOTION":15.30183945,"ECCENTRICITY":0.00016943,"INCLINATION":53.1616,"RA_OF_ASC_NODE":168.6754,"ARG_OF_PERICENTER":139.7643,"MEAN_ANOMALY":220.3484,"EPHEMERIS_TYPE":0,"CLASSIFICATION_TYPE":"U","NORAD_CAT_ID":65353,"ELEMENT_SET_NO":999,"REV_AT_EPOCH":2973,"BSTAR":0.00057318022,"MEAN_MOTION_DOT":0.00016646,"MEAN_MOTION_DDOT":0},{"OBJECT_NAME":"STARLINK-34785","OBJECT_ID":"2025-190D","EPOCH":"2026-03-09T13:45:15.909120","MEAN_MOTION":15.30147928,"ECCENTRICITY":0.0001355,"INCLINATION":53.1588,"RA_OF_ASC_NODE":168.9876,"ARG_OF_PERICENTER":82.0202,"MEAN_ANOMALY":278.0953,"EPHEMERIS_TYPE":0,"CLASSIFICATION_TYPE":"U","NORAD_CAT_ID":65354,"ELEMENT_SET_NO":999,"REV_AT_EPOCH":2926,"BSTAR":0.001111,"MEAN_MOTION_DOT":0.00032636,"MEAN_MOTION_DDOT":0},{"OBJECT_NAME":"STARLINK-34823","OBJECT_ID":"2025-190E","EPOCH":"2026-03-09T12:58:09.755616","MEAN_MOTION":15.30190871,"ECCENTRICITY":0.00011528,"INCLINATION":53.1597,"RA_OF_ASC_NODE":168.7809,"ARG_OF_PERICENTER":86.0047,"MEAN_ANOMALY":274.1086,"EPHEMERIS_TYPE":0,"CLASSIFICATION_TYPE":"U","NORAD_CAT_ID":65355,"ELEMENT_SET_NO":999,"REV_AT_EPOCH":2973,"BSTAR":0.0009453984,"MEAN_MOTION_DOT":0.00027737,"MEAN_MOTION_DDOT":0},{"OBJECT_NAME":"STARLINK-34680","OBJECT_ID":"2025-190F","EPOCH":"2026-03-09T12:18:48.694176","MEAN_MOTION":15.30211378,"ECCENTRICITY":0.00015025,"INCLINATION":53.1591,"RA_OF_ASC_NODE":169.3184,"ARG_OF_PERICENTER":147.6233,"MEAN_ANOMALY":212.486,"EPHEMERIS_TYPE":0,"CLASSIFICATION_TYPE":"U","NORAD_CAT_ID":65356,"ELEMENT_SET_NO":999,"REV_AT_EPOCH":2925,"BSTAR":0.0010535781,"MEAN_MOTION_DOT":0.00030986,"MEAN_MOTION_DDOT":0},{"OBJECT_NAME":"STARLINK-34860","OBJECT_ID":"2025-190G","EPOCH":"2026-03-09T13:17:54.976128","MEAN_MOTION":15.30190653,"ECCENTRICITY":7.806e-5,"INCLINATION":53.1577,"RA_OF_ASC_NODE":168.8627,"ARG_OF_PERICENTER":68.5983,"MEAN_ANOMALY":291.51,"EPHEMERIS_TYPE":0,"CLASSIFICATION_TYPE":"U","NORAD_CAT_ID":65357,"ELEMENT_SET_NO":999,"REV_AT_EPOCH":2926,"BSTAR":0.00084197603,"MEAN_MOTION_DOT":0.00024653,"MEAN_MOTION_DDOT":0}]
