STARLINK-35092          
1 65342U 25189V   26068.58420012  .00037187  00000+0  12608-2 0  9993
2 65342  53.1604 207.0206 0000949  87.1219 272.9890 15.30215946 31005
STARLINK-34838          
1 65343U 25189W   26068.70122398  .00020043  00000+0  68697-3 0  9997
2 65343  53.1606 207.0316 0001031  73.3677 286.7437 15.30201971 31113
STARLINK-35088          
1 65344U 25189X   26068.69383873  .00039443  00000+0  13370-2 0  9994
2 65344  53.1599 206.9909 0001253  52.8689 307.2426 15.30195891 31112
STARLINK-34831          
1 65345U 25189Y   26068.60214016  .00043074  00000+0  14582-2 0  9999
2 65345  53.1574 207.1267 0001056  76.9728 283.1390 15.30195782 31108
STARLINK-34873          
1 65346U 25189Z   26068.64001715  .00013087  00000+0  45328-3 0  9998
2 65346  53.1607 206.6533 0001115 101.6411 258.4715 15.30192814 31117
STARLINK-34881          
1 65347U 25189AA  26068.67484100  .00027407  00000+0  93409-3 0  9999
2 65347  53.1570 206.8741 0001094  63.0229 297.0883 15.30198799 31117
STARLINK-34859          
1 65348U 25189AB  26068.68434007  .00023770  00000+0  81203-3 0  9990
2 65348  53.1585 206.9335 0000921  89.5242 270.5864 15.30202852 31100
STARLINK-34895          
1 65349U 25189AC  26068.66957316  .00029332  00000+0  99742-3 0  9999
2 65349  53.1576 206.8380 0001267  53.2836 306.8281 15.30236819 31062
STARLINK-34892          
1 65350U 25189AD  26068.65268179  .00034458  00000+0  11708-2 0  9992
2 65350  53.1593 206.7315 0000940  90.7848 269.3260 15.30181212 31051
STARLINK-34244          
1 65351U 25190A   26068.56466760  .00038546  00000+0  13075-2 0  9992
2 65351  53.1581 168.9585 0001286  83.6492 276.4655 15.30183293 29737
STARLINK-34716          
1 65352U 25190B   26068.54988769  .00022558  00000+0  77175-3 0  9997
2 65352  53.1589 168.8406 0001017  68.7579 291.3531 15.30187279 29736
STARLINK-34828          
1 65353U 25190C   26068.52350226  .00016646  00000+0  57318-3 0  9995
2 65353  53.1616 168.6754 0001694 139.7643 220.3484 15.30183945 29739
STARLINK-34785          
1 65354U 25190D   26068.57310080  .00032636  00000+0  11110-2 0  9991
2 65354  53.1588 168.9876 0001355  82.0202 278.0953 15.30147928 29261
STARLINK-34823          
1 65355U 25190E   26068.54039069  .00027737  00000+0  94540-3 0  9999
2 65355  53.1597 168.7809 0001152  86.0047 274.1086 15.30190871 29733
STARLINK-34680          
1 65356U 25190F   26068.51306359  .00030986  00000+0  10536-2 0  9998
2 65356  53.1591 169.3184 0001502 147.6233 212.4860 15.30211378 29259
STARLINK-34860          
1 65357U 25190G   26068.55410852  .00024653  00000+0  84198-3 0  9997
2 65357  53.1577 168.8627 0000780  68.5983 291.5100 15.30190653 29268
